sat44060
1 44060U 19010D   20046.86887717  .00000031  00000-0  43077-4 0  9998
2 44060  87.9248 358.8361 0001695  76.3635 283.7687 13.21814389 46864
